0 IRIDIUM 112
1 41925U 17003J   24015.16641421  .00000069  00000-0  17704-4 0  9997
2 41925  86.3959  97.7837 0002307  99.5138 260.6318 14.34216949366599
0 IRIDIUM 111
1 41926U 17003K   24015.15373028  .00000093  00000-0  26015-4 0  9994
2 41926  86.3960  97.8407 0002290  88.2659 271.8799 14.34216972366616
0 IRIDIUM 113
1 42803U 17039A   24014.92438678  .00000092  00000-0  25906-4 0  9992
2 42803  86.3994 331.6850 0002396  82.5981 277.5487 14.34218522344448
0 IRIDIUM 123
1 42804U 17039B   24014.89609834 -.00000070  00000-0 -32166-4 0  9997
2 42804  86.3971   3.1849 0002272  88.9475 271.1981 14.34218295343203
0 IRIDIUM 120
1 42805U 17039C   24014.91804407  .00000094  00000-0  26446-4 0  9992
2 42805  86.3983 331.5849 0002144  83.2439 276.9000 14.34218306344435
0 IRIDIUM 115
1 42806U 17039D   24014.94248462  .00000880  00000-0  25552-3 0  9998
2 42806  86.4521 331.5764 0002419  83.8627 276.2850 14.43295036346726
0 IRIDIUM 118
1 42807U 17039E   24014.92781096  .00000275  00000-0  91220-4 0  9996
2 42807  86.3971   3.1736 0002131  83.8635 276.2804 14.34217992343200
0 IRIDIUM 117
1 42808U 17039F   24014.94682932 -.00000118  00000-0 -49320-4 0  9990
2 42808  86.3972   3.1313 0002196  82.7467 277.3978 14.34213955343237
